OBJECT_NAME,OBJECT_ID,EPOCH,MEAN_MOTION,ECCENTRICITY,INCLINATION,RA_OF_ASC_NODE,ARG_OF_PERICENTER,MEAN_ANOMALY,EPHEMERIS_TYPE,CLASSIFICATION_TYPE,NORAD_CAT_ID,ELEMENT_SET_NO,REV_AT_EPOCH,BSTAR,MEAN_MOTION_DOT,MEAN_MOTION_DDOT
STARLINK-37799,2026-119X,2026-06-15T02:30:15.172128,15.80824343,.000107,97.2819,191.8632,57.0973,303.0398,0,U,69317,999,246,.67943E-3,.132037E-2,0
STARLINK-37802,2026-119Y,2026-06-15T00:56:11.485248,15.80853956,.0001521,97.2819,191.7993,31.7373,328.3987,0,U,69318,999,370,.80751E-3,.157634E-2,0
STARLINK-37803,2026-119Z,2026-06-15T04:00:01.998720,15.67871375,.0002348,97.2840,191.9118,110.0902,197.5425,0,U,69319,999,367,-.22945E-1,-.2193476E-1,0
GUOWANG TEST OBJECT A,2026-120A,2026-06-07T11:06:12.288672,15.38803685,.00095994,54.9967,71.5399,294.3963,65.6063,0,U,69320,999,119,.24095813E-3,.9002E-4,0
GUOWANG TEST OBJECT B,2026-120B,2026-06-14T22:19:12.387072,15.38665463,.0009837,54.9982,37.8967,323.9642,36.0722,0,U,69321,999,234,.26028E-3,.9712E-4,0
GUOWANG TEST OBJECT C,2026-120C,2026-06-07T21:56:00.773376,15.39284097,.00098504,54.9968,69.4792,309.3319,50.6835,0,U,69322,999,126,.41735581E-3,.16153E-3,0
GUOWANG TEST OBJECT D,2026-120D,2026-06-14T22:13:54.314112,15.38988640,.0011155,54.9977,37.8718,337.9003,22.1543,0,U,69323,999,234,.12953E-3,.4686E-4,0
QIANFAN-163,2026-121A,2026-06-07T22:57:09.243936,13.60351284,.00192,89.0167,301.4498,214.2671,145.7248,0,U,69325,999,90,.25988E-4,.32E-6,0
QIANFAN-164,2026-121B,2026-06-11T09:53:52.001952,13.60355109,.0019383,89.0157,301.0998,205.3125,154.7084,0,U,69326,999,137,.13228E-3,.112E-5,0
SZ-22 MODULE,2025-272C,2026-06-15T04:35:40.472160,15.60144499,.0006401,41.4806,334.2405,69.8006,290.3520,0,U,69328,999,301,.2149E-3,.17688E-3,0
STARLINK-37733,2026-122A,2026-06-15T04:00:01.998720,15.80843753,.0000554,97.2837,195.4908,64.4990,99.6530,0,U,69329,999,302,-.1525E-3,-.29291E-3,0
STARLINK-37772,2026-122B,2026-06-15T04:00:01.998720,15.80860977,.0001299,97.2837,195.5040,95.2297,98.7654,0,U,69330,999,297,-.38684E-3,-.73769E-3,0
STARLINK-37768,2026-122C,2026-06-15T04:00:01.998720,15.80896460,.0000976,97.2834,195.5078,106.5400,96.8743,0,U,69331,999,297,-.60032E-3,-.114056E-2,0
STARLINK-37833,2026-122D,2026-06-15T04:00:01.998720,15.80867611,.0001053,97.2839,195.5087,104.2083,102.0092,0,U,69332,999,297,-.45823E-3,-.87246E-3,0
STARLINK-37818,2026-122E,2026-06-15T04:00:01.998720,15.80833078,.0001167,97.2833,195.5048,93.6594,101.5419,0,U,69333,999,302,-.5866E-4,-.11372E-3,0
STARLINK-37868,2026-122F,2026-06-15T04:00:01.998720,15.80857693,.0000938,97.2840,195.5217,97.0590,140.3487,0,U,69334,999,302,-.40183E-3,-.76582E-3,0
STARLINK-37877,2026-122G,2026-06-15T04:00:01.998720,15.80881861,.0000701,97.2840,195.5214,87.9373,150.1797,0,U,69335,999,302,-.907E-3,-.17102E-2,0
STARLINK-37791,2026-122H,2026-06-15T04:00:01.998720,15.80857250,.000056,97.2829,195.5260,28.0765,218.8674,0,U,69336,999,302,-.25214E-3,-.48259E-3,0
STARLINK-37765,2026-122J,2026-06-15T04:00:01.998720,15.80838197,.0000803,97.2834,195.5278,99.8739,149.2254,0,U,69337,999,307,-.10919E-3,-.21027E-3,0
STARLINK-37788,2026-122K,2026-06-15T04:00:01.998720,15.81052721,.0001075,97.2835,195.5292,92.7843,160.2310,0,U,69338,999,302,-.32925E-2,-.596017E-2,0
STARLINK-37743,2026-122L,2026-06-15T04:00:01.998720,15.80816859,.0001017,97.2830,195.5232,106.5796,133.1681,0,U,69339,999,302,.60943E-5,.1026E-4,0
STARLINK-37780,2026-122M,2026-06-15T04:00:01.998720,15.80851471,.0001242,97.2834,195.5261,99.2632,146.0231,0,U,69340,999,307,-.30198E-3,-.57697E-3,0
STARLINK-37781,2026-122N,2026-06-15T04:00:01.998720,15.80971057,.0000888,97.2831,195.5208,106.3526,127.7858,0,U,69341,999,302,-.22051E-2,-.406325E-2,0
STARLINK-37782,2026-122P,2026-06-15T04:00:01.998720,15.80834253,.0000822,97.2833,195.5454,58.0497,233.4445,0,U,69342,999,302,-.2336E-3,-.44694E-3,0
STARLINK-37776,2026-122Q,2026-06-15T04:00:01.998720,15.80911928,.0001238,97.2833,195.5476,76.0896,220.8493,0,U,69343,999,302,-.83192E-3,-.157346E-2,0
STARLINK-37786,2026-122R,2026-06-15T04:00:01.998720,15.80853066,.0000659,97.2834,195.5536,61.2540,248.9371,0,U,69344,999,302,-.40877E-3,-.77873E-3,0
STARLINK-37785,2026-122S,2026-06-15T04:00:01.998720,15.81500405,.0001159,97.2831,195.5547,81.2951,231.4127,0,U,69345,999,302,-.49305E-2,-.881834E-2,0
STARLINK-37773,2026-122T,2026-06-15T04:00:01.998720,15.80773305,.0001359,97.2836,195.5527,90.8126,215.5976,0,U,69346,999,307,.53282E-3,.102928E-2,0
STARLINK-37744,2026-122U,2026-06-15T04:00:01.998720,15.80607656,.0001318,97.2835,195.5555,81.6770,233.2299,0,U,69347,999,302,-.15452E-1,-.2513711E-1,0
