STARLINK-37799          
1 69317U 26119X   26166.10434227  .00132037  00000+0  67943-3 0  9996
2 69317  97.2819 191.8632 0001070  57.0973 303.0398 15.80824343  2469
STARLINK-37802          
1 69318U 26119Y   26166.03902182  .00157634  00000+0  80751-3 0  9991
2 69318  97.2819 191.7993 0001521  31.7373 328.3987 15.80853956  3707
STARLINK-37803          
1 69319U 26119Z   26166.16668980 -.02193476  00000+0 -22945-1 0  9998
2 69319  97.2840 191.9118 0002348 110.0902 197.5425 15.67871375  3679
GUOWANG TEST OBJECT A   
1 69320U 26120A   26158.46264223  .00009002  00000+0  24096-3 0  9996
2 69320  54.9967  71.5399 0009599 294.3963  65.6063 15.38803685  1198
GUOWANG TEST OBJECT B   
1 69321U 26120B   26165.93000448  .00009712  00000+0  26028-3 0  9999
2 69321  54.9982  37.8967 0009837 323.9642  36.0722 15.38665463  2342
GUOWANG TEST OBJECT C   
1 69322U 26120C   26158.91389784  .00016153  00000+0  41736-3 0  9993
2 69322  54.9968  69.4792 0009850 309.3319  50.6835 15.39284097  1266
GUOWANG TEST OBJECT D   
1 69323U 26120D   26165.92632308  .00004686  00000+0  12953-3 0  9993
2 69323  54.9977  37.8718 0011155 337.9003  22.1543 15.38988640  2346
QIANFAN-163             
1 69325U 26121A   26158.95635699  .00000032  00000+0  25988-4 0  9991
2 69325  89.0167 301.4498 0019200 214.2671 145.7248 13.60351284   905
QIANFAN-164             
1 69326U 26121B   26162.41240743  .00000112  00000+0  13228-3 0  9992
2 69326  89.0157 301.0998 0019383 205.3125 154.7084 13.60355109  1373
SZ-22 MODULE            
1 69328U 25272C   26166.19144065  .00017688  00000+0  21490-3 0  9995
2 69328  41.4806 334.2405 0006401  69.8006 290.3520 15.60144499  3012
STARLINK-37733          
1 69329U 26122A   26166.16668980 -.00029291  00000+0 -15250-3 0  9997
2 69329  97.2837 195.4908 0000554  64.4990  99.6530 15.80843753  3020
STARLINK-37772          
1 69330U 26122B   26166.16668980 -.00073769  00000+0 -38684-3 0  9994
2 69330  97.2837 195.5040 0001299  95.2297  98.7654 15.80860977  2976
STARLINK-37768          
1 69331U 26122C   26166.16668980 -.00114056  00000+0 -60032-3 0  9992
2 69331  97.2834 195.5078 0000976 106.5400  96.8743 15.80896460  2972
STARLINK-37833          
1 69332U 26122D   26166.16668980 -.00087246  00000+0 -45823-3 0  9994
2 69332  97.2839 195.5087 0001053 104.2083 102.0092 15.80867611  2970
STARLINK-37818          
1 69333U 26122E   26166.16668980 -.00011372  00000+0 -58660-4 0  9996
2 69333  97.2833 195.5048 0001167  93.6594 101.5419 15.80833078  3020
STARLINK-37868          
1 69334U 26122F   26166.16668980 -.00076582  00000+0 -40183-3 0  9991
2 69334  97.2840 195.5217 0000938  97.0590 140.3487 15.80857693  3021
STARLINK-37877          
1 69335U 26122G   26166.16668980 -.00171020  00000+0 -90700-3 0  9995
2 69335  97.2840 195.5214 0000701  87.9373 150.1797 15.80881861  3021
STARLINK-37791          
1 69336U 26122H   26166.16668980 -.00048259  00000+0 -25214-3 0  9991
2 69336  97.2829 195.5260 0000560  28.0765 218.8674 15.80857250  3025
STARLINK-37765          
1 69337U 26122J   26166.16668980 -.00021027  00000+0 -10919-3 0  9992
2 69337  97.2834 195.5278 0000803  99.8739 149.2254 15.80838197  3073
STARLINK-37788          
1 69338U 26122K   26166.16668980 -.00596017  00000+0 -32925-2 0  9999
2 69338  97.2835 195.5292 0001075  92.7843 160.2310 15.81052721  3024
STARLINK-37743          
1 69339U 26122L   26166.16668980  .00001026  00000+0  60943-5 0  9993
2 69339  97.2830 195.5232 0001017 106.5796 133.1681 15.80816859  3020
STARLINK-37780          
1 69340U 26122M   26166.16668980 -.00057697  00000+0 -30198-3 0  9999
2 69340  97.2834 195.5261 0001242  99.2632 146.0231 15.80851471  3073
STARLINK-37781          
1 69341U 26122N   26166.16668980 -.00406325  00000+0 -22051-2 0  9994
2 69341  97.2831 195.5208 0000888 106.3526 127.7858 15.80971057  3028
STARLINK-37782          
1 69342U 26122P   26166.16668980 -.00044694  00000+0 -23360-3 0  9997
2 69342  97.2833 195.5454 0000822  58.0497 233.4445 15.80834253  3025
STARLINK-37776          
1 69343U 26122Q   26166.16668980 -.00157346  00000+0 -83192-3 0  9996
2 69343  97.2833 195.5476 0001238  76.0896 220.8493 15.80911928  3023
STARLINK-37786          
1 69344U 26122R   26166.16668980 -.00077873  00000+0 -40877-3 0  9996
2 69344  97.2834 195.5536 0000659  61.2540 248.9371 15.80853066  3024
STARLINK-37785          
1 69345U 26122S   26166.16668980 -.00881834  00000+0 -49305-2 0  9991
2 69345  97.2831 195.5547 0001159  81.2951 231.4127 15.81500405  3021
STARLINK-37773          
1 69346U 26122T   26166.16668980  .00102928  00000+0  53282-3 0  9990
2 69346  97.2836 195.5527 0001359  90.8126 215.5976 15.80773305  3077
STARLINK-37744          
1 69347U 26122U   26166.16668980 -.02513711  00000+0 -15452-1 0  9996
2 69347  97.2835 195.5555 0001318  81.6770 233.2299 15.80607656  3021
